*******************************************************************************
Ephemeris / WWW_USER Tue Mar 27 20:16:50 2018 Pasadena, USA      / Horizons    
*******************************************************************************
Target body name: Tethys (603)                    {source: sat389}
Center body name: Solar System Barycenter (0)     {source: DE431mx}
Center-site name: BODY CENTER
*******************************************************************************
Start time      : A.D. 2000-Jan-01 00:00:00.0000 TDB
Stop  time      : A.D. 2010-Jan-01 00:00:00.0000 TDB
Step-size       : 7200 minutes
*******************************************************************************
Center geodetic : 0.00000000,0.00000000,0.0000000 {E-lon(deg),Lat(deg),Alt(km)}
Center cylindric: 0.00000000,0.00000000,0.0000000 {E-lon(deg),Dxy(km),Dz(km)}
Center radii    : (undefined)                                                  
Output units    : AU-D                                                         
Output type     : GEOMETRIC cartesian states
Output format   : 2 (position and velocity)
Reference frame : ICRF/J2000.0                                                 
Coordinate systm: Ecliptic and Mean Equinox of Reference Epoch                 
*******************************************************************************
JDTDB
   X     Y     Z
   VX    VY    VZ
*******************************************************************************
$$SOE
2452384.500000000 = A.D. 2002-Apr-20 00:00:00.0000 TDB 
   2.101358996354618E+00  8.794506613577573E+00 -2.361578561513424E-01
  -2.538505854608019E-03 -3.861783675705744E-03  2.730000812936654E-03
2452389.500000000 = A.D. 2002-Apr-25 00:00:00.0000 TDB 
   2.074711642182369E+00  8.803378663208017E+00 -2.366419008371842E-01
  -1.220940479605276E-02  2.231466586174834E-03  2.187070736973723E-04
2452394.500000000 = A.D. 2002-Apr-30 00:00:00.0000 TDB 
   2.047236191856267E+00  8.806715416652455E+00 -2.341066914755376E-01
  -1.198713543428536E-03  5.247682270596577E-03 -2.336067230261367E-03
2452399.500000000 = A.D. 2002-May-05 00:00:00.0000 TDB 
   2.015219869324480E+00  8.813946720416467E+00 -2.333520744768777E-01
  -4.643272306635475E-03 -4.489474121009183E-03  3.218875022192548E-03
2452404.500000000 = A.D. 2002-May-10 00:00:00.0000 TDB 
   1.989367092868826E+00  8.821795131716952E+00 -2.334924501112600E-01
  -1.156818400549359E-02  4.024148884432230E-03 -8.309771651753148E-04
2452409.500000000 = A.D. 2002-May-15 00:00:00.0000 TDB 
   1.960658732033735E+00  8.824733469456843E+00 -2.307780520035140E-01
   1.044587555719636E-04  3.571976289013734E-03 -1.571185961814265E-03
2452414.500000000 = A.D. 2002-May-20 00:00:00.0000 TDB 
   1.929120724786138E+00  8.832617783449654E+00 -2.305577287939674E-01
  -6.871557415916780E-03 -4.456963873790680E-03  3.363814839221580E-03
2452419.500000000 = A.D. 2002-May-25 00:00:00.0000 TDB 
   1.903740485691962E+00  8.839243029607228E+00 -2.302194037740148E-01
  -1.025655136190489E-02  5.492760503078611E-03 -1.765033595875668E-03
2452424.500000000 = A.D. 2002-May-30 00:00:00.0000 TDB 
   1.873803197464456E+00  8.842138804348146E+00 -2.275176306561179E-01
   7.351527122791821E-04  1.624128737869418E-03 -6.012867420730747E-04
2452429.500000000 = A.D. 2002-Jun-04 00:00:00.0000 TDB 
   1.843069459023323E+00  8.850451353165740E+00 -2.277395329972603E-01
  -8.970950394957808E-03 -3.775130051631678E-03  3.148242160584013E-03
2452434.500000000 = A.D. 2002-Jun-09 00:00:00.0000 TDB 
   1.817777489209102E+00  8.855763894456327E+00 -2.268408361697295E-01
  -8.426938474093242E-03  6.461091783213521E-03 -2.475512228959065E-03
2452439.500000000 = A.D. 2002-Jun-14 00:00:00.0000 TDB 
   1.786748911977572E+00  8.858946070226779E+00 -2.243409716927885E-01
   6.196159349805390E-04 -3.796746133072550E-04  4.644014235920984E-04
2452444.500000000 = A.D. 2002-Jun-19 00:00:00.0000 TDB 
   1.757047555393523E+00  8.867381328055654E+00 -2.248610154197439E-01
  -1.069906121317902E-02 -2.530103930774820E-03  2.596687894755494E-03
2452449.500000000 = A.D. 2002-Jun-24 00:00:00.0000 TDB 
   1.731444258823281E+00  8.871412843332054E+00 -2.233838276506117E-01
  -6.289419622999511E-03  6.811597811487955E-03 -2.880581875776832E-03
2452454.500000000 = A.D. 2002-Jun-29 00:00:00.0000 TDB 
   1.699581616081755E+00  8.875148033354380E+00 -2.212524397297316E-01
  -2.286618841519049E-04 -2.212628505808904E-03  1.503055543350021E-03
2452459.500000000 = A.D. 2002-Jul-04 00:00:00.0000 TDB 
   1.671014707350821E+00  8.883356435486423E+00 -2.218915829214710E-01
  -1.185964333996869E-02 -8.697005058074543E-04  1.770795822421394E-03
2452464.500000000 = A.D. 2002-Jul-09 00:00:00.0000 TDB 
   1.644728762318273E+00  8.886254860477022E+00 -2.198826708274025E-01
  -4.091817571182841E-03  6.499071664511714E-03 -2.933688388256089E-03
2452469.500000000 = A.D. 2002-Jul-14 00:00:00.0000 TDB 
   1.612379442779123E+00  8.890714203923705E+00 -2.182431956745955E-01
  -1.715138856172365E-03 -3.669465498516780E-03  2.395978216573181E-03
2452474.500000000 = A.D. 2002-Jul-19 00:00:00.0000 TDB 
   1.584913147717167E+00  8.898341544254009E+00 -2.188075979336824E-01
  -1.232129477335237E-02  1.007184900273235E-03  7.654161958324911E-04
2452479.500000000 = A.D. 2002-Jul-24 00:00:00.0000 TDB 
   1.557646816736173E+00  8.900355832050481E+00 -2.163746098402328E-01
  -2.089136116005431E-03  5.552217935135388E-03 -2.627094155901656E-03
2452484.500000000 = A.D. 2002-Jul-29 00:00:00.0000 TDB 
   1.525207446200529E+00  8.905596645961776E+00 -2.152938394174183E-01
  -3.669183622326961E-03 -4.589919031073571E-03  3.041606795464608E-03
2452489.500000000 = A.D. 2002-Aug-03 00:00:00.0000 TDB 
   1.498674784707633E+00  8.912324903217064E+00 -2.155969763169229E-01
  -1.203066645853123E-02  2.877967186199916E-03 -3.047124675131349E-04
2452494.500000000 = A.D. 2002-Aug-08 00:00:00.0000 TDB 
   1.470237051685114E+00  8.913773391771219E+00 -2.128945564547894E-01
  -5.106911282601975E-04  4.073767259260603E-03 -1.995056499087286E-03
2452499.500000000 = A.D. 2002-Aug-13 00:00:00.0000 TDB 
   1.438110272809924E+00  8.919731752782397E+00 -2.123746873713724E-01
  -5.865352918306707E-03 -4.872822390871839E-03  3.364946511857697E-03
2452504.500000000 = A.D. 2002-Aug-18 00:00:00.0000 TDB 
   1.412232708976908E+00  8.925316442389951E+00 -2.122593125820454E-01
  -1.102259498204944E-02  4.522089010737414E-03 -1.317872855924822E-03
2452509.500000000 = A.D. 2002-Aug-23 00:00:00.0000 TDB 
   1.382561896835389E+00  8.926553312017775E+00 -2.094732650798592E-01
   4.591621225536915E-04  2.230199296411634E-03 -1.110146968708907E-03
2452514.500000000 = A.D. 2002-Aug-28 00:00:00.0000 TDB 
   1.351107904050780E+00  8.933052136062475E+00 -2.094517414642254E-01
  -8.054635992018777E-03 -4.492608622226265E-03  3.329307622845965E-03
2452519.500000000 = A.D. 2002-Sep-02 00:00:00.0000 TDB 
   1.325525385344126E+00  8.937348685297374E+00 -2.088067970718561E-01
  -9.415316017946311E-03  5.743252046284536E-03 -2.157556193181148E-03
2452524.500000000 = A.D. 2002-Sep-07 00:00:00.0000 TDB 
   1.294697069334357E+00  8.938720367639849E+00 -2.061314241197192E-01
   7.078385670341394E-04  2.257806955782828E-04 -7.180752424527860E-05
2452529.500000000 = A.D. 2002-Sep-12 00:00:00.0000 TDB 
   1.264194869295584E+00  8.945488985586705E+00 -2.064877971261851E-01
  -9.984388276627279E-03 -3.500886592856112E-03  2.939017020768437E-03
2452534.500000000 = A.D. 2002-Sep-17 00:00:00.0000 TDB 
   1.238509363567905E+00  8.948471946677818E+00 -2.052627539422593E-01
  -7.393355077458124E-03  6.393985339427697E-03 -2.727225187591424E-03
2452539.500000000 = A.D. 2002-Sep-22 00:00:00.0000 TDB 
   1.206727095731089E+00  8.950278859714480E+00 -2.028794996691133E-01
   2.072249849102581E-04 -1.713201283949403E-03  1.000799750076557E-03
2452544.500000000 = A.D. 2002-Sep-27 00:00:00.0000 TDB 
   1.177340334856794E+00  8.956984788000332E+00 -2.034492600757871E-01
  -1.143402399399910E-02 -2.016724932488330E-03  2.237558726702648E-03
2452549.500000000 = A.D. 2002-Oct-02 00:00:00.0000 TDB 
   1.151161253070331E+00  8.958747593221265E+00 -2.016582369109813E-01
  -5.189764150044044E-03  6.394551380113711E-03 -2.962126709807967E-03
2452554.500000000 = A.D. 2002-Oct-07 00:00:00.0000 TDB 
   1.118734418394981E+00  8.961208630464844E+00 -1.997145690078074E-01
  -9.869610726880493E-04 -3.368475958206443E-03  1.984919029136940E-03
2452559.500000000 = A.D. 2002-Oct-12 00:00:00.0000 TDB 
   1.090495130566296E+00  8.967496362021624E+00 -2.003084269068271E-01
  -1.223926233431344E-02 -2.179407861547837E-04  1.305198828229926E-03
2452564.500000000 = A.D. 2002-Oct-17 00:00:00.0000 TDB 
   1.063483937825258E+00  8.968243302630421E+00 -1.980301361629243E-01
  -3.060867239045154E-03  5.738051196628451E-03 -2.834355095058793E-03
2452569.500000000 = A.D. 2002-Oct-22 00:00:00.0000 TDB 
   1.030790642778860E+00  8.971470901787914E+00 -1.966226902475051E-01
  -2.737799872993889E-03 -4.557687584886724E-03  2.769391362486369E-03
2452574.500000000 = A.D. 2002-Oct-27 00:00:00.0000 TDB 
   1.003594453295519E+00  8.977000900994165E+00 -1.970470316209224E-01
  -1.230771212272662E-02  1.681112282872094E-03  2.486674289382747E-04
2452579.500000000 = A.D. 2002-Nov-01 00:00:00.0000 TDB 
   9.755050314574041E-01  8.977020951746924E+00 -1.944145599825879E-01
  -1.249387843501079E-03  4.493084469227949E-03 -2.357789080294646E-03
2452584.500000000 = A.D. 2002-Nov-06 00:00:00.0000 TDB 
   9.429517282689173E-01  8.981008146090202E+00 -1.935783472877963E-01
  -4.842578972585484E-03 -5.148851219481360E-03  3.263795393602256E-03
2452589.500000000 = A.D. 2002-Nov-11 00:00:00.0000 TDB 
   9.165708678186636E-01  8.985498587996316E+00 -1.936588768180785E-01
  -1.163199977344169E-02  3.456658355096748E-03 -8.121950427031938E-04
